[{"OBJECT_NAME":"SCD 1","OBJECT_ID":"1993-009B","EPOCH":"2026-03-14T08:03:43.512192","MEAN_MOTION":14.46071065,"ECCENTRICITY":0.00417968,"INCLINATION":24.9695,"RA_OF_ASC_NODE":73.2039,"ARG_OF_PERICENTER":213.789,"MEAN_ANOMALY":169.6949,"EPHEMERIS_TYPE":0,"CLASSIFICATION_TYPE":"U","NORAD_CAT_ID":22490,"ELEMENT_SET_NO":999,"REV_AT_EPOCH":74737,"BSTAR":8.5362901e-5,"MEAN_MOTION_DOT":4.99e-6,"MEAN_MOTION_DDOT":0},{"OBJECT_NAME":"TECHSAT 1B (GO-32)","OBJECT_ID":"1998-043D","EPOCH":"2026-03-14T14:05:09.798144","MEAN_MOTION":14.24407722,"ECCENTRICITY":0.00021777,"INCLINATION":99.003,"RA_OF_ASC_NODE":63.9796,"ARG_OF_PERICENTER":111.7823,"MEAN_ANOMALY":248.3587,"EPHEMERIS_TYPE":0,"CLASSIFICATION_TYPE":"U","NORAD_CAT_ID":25397,"ELEMENT_SET_NO":999,"REV_AT_EPOCH":43786,"BSTAR":6.9243681e-5,"MEAN_MOTION_DOT":1.14e-6,"MEAN_MOTION_DDOT":0},{"OBJECT_NAME":"SCD 2","OBJECT_ID":"1998-060A","EPOCH":"2026-03-14T07:46:52.944960","MEAN_MOTION":14.454856,"ECCENTRICITY":0.00167164,"INCLINATION":24.9957,"RA_OF_ASC_NODE":297.1641,"ARG_OF_PERICENTER":200.0635,"MEAN_ANOMALY":320.7613,"EPHEMERIS_TYPE":0,"CLASSIFICATION_TYPE":"U","NORAD_CAT_ID":25504,"ELEMENT_SET_NO":999,"REV_AT_EPOCH":44658,"BSTAR":7.4536967e-5,"MEAN_MOTION_DOT":4.49e-6,"MEAN_MOTION_DDOT":0},{"OBJECT_NAME":"DLR-TUBSAT","OBJECT_ID":"1999-029B","EPOCH":"2026-03-14T13:38:25.861632","MEAN_MOTION":14.52399927,"ECCENTRICITY":0.00130369,"INCLINATION":98.6668,"RA_OF_ASC_NODE":65.9758,"ARG_OF_PERICENTER":278.74,"MEAN_ANOMALY":81.2318,"EPHEMERIS_TYPE":0,"CLASSIFICATION_TYPE":"U","NORAD_CAT_ID":25757,"ELEMENT_SET_NO":999,"REV_AT_EPOCH":41951,"BSTAR":5.4283807e-5,"MEAN_MOTION_DOT":1.73e-6,"MEAN_MOTION_DDOT":0},{"OBJECT_NAME":"TERRA","OBJECT_ID":"1999-068A","EPOCH":"2026-03-14T15:57:40.474656","MEAN_MOTION":14.61020819,"ECCENTRICITY":0.00029962,"INCLINATION":97.9583,"RA_OF_ASC_NODE":126.9095,"ARG_OF_PERICENTER":140.3198,"MEAN_ANOMALY":19.5937,"EPHEMERIS_TYPE":0,"CLASSIFICATION_TYPE":"U","NORAD_CAT_ID":25994,"ELEMENT_SET_NO":999,"REV_AT_EPOCH":39580,"BSTAR":0.0001160804,"MEAN_MOTION_DOT":5.25e-6,"MEAN_MOTION_DDOT":0},{"OBJECT_NAME":"MAROC-TUBSAT","OBJECT_ID":"2001-056D","EPOCH":"2026-03-14T10:39:17.173728","MEAN_MOTION":13.70258236,"ECCENTRICITY":0.00201397,"INCLINATION":99.8016,"RA_OF_ASC_NODE":248.5306,"ARG_OF_PERICENTER":27.6952,"MEAN_ANOMALY":26.4002,"EPHEMERIS_TYPE":0,"CLASSIFICATION_TYPE":"U","NORAD_CAT_ID":27004,"ELEMENT_SET_NO":999,"REV_AT_EPOCH":21321,"BSTAR":4.2683954e-5,"MEAN_MOTION_DOT":-9.0e-8,"MEAN_MOTION_DDOT":0},{"OBJECT_NAME":"AQUA","OBJECT_ID":"2002-022A","EPOCH":"2026-03-14T13:24:41.749056","MEAN_MOTION":14.61990486,"ECCENTRICITY":6.104e-5,"INCLINATION":98.4181,"RA_OF_ASC_NODE":41.0126,"ARG_OF_PERICENTER":99.437,"MEAN_ANOMALY":40.4397,"EPHEMERIS_TYPE":0,"CLASSIFICATION_TYPE":"U","NORAD_CAT_ID":27424,"ELEMENT_SET_NO":999,"REV_AT_EPOCH":26944,"BSTAR":0.00026064684,"MEAN_MOTION_DOT":1.257e-5,"MEAN_MOTION_DDOT":0},{"OBJECT_NAME":"IRS-P6 (RESOURCESAT-1)","OBJECT_ID":"2003-046A","EPOCH":"2026-03-14T15:12:36.762048","MEAN_MOTION":14.36120631,"ECCENTRICITY":0.00628831,"INCLINATION":98.2042,"RA_OF_ASC_NODE":114.7273,"ARG_OF_PERICENTER":266.0078,"MEAN_ANOMALY":254.9991,"EPHEMERIS_TYPE":0,"CLASSIFICATION_TYPE":"U","NORAD_CAT_ID":28051,"ELEMENT_SET_NO":999,"REV_AT_EPOCH":16695,"BSTAR":9.6822015e-5,"MEAN_MOTION_DOT":2.47e-6,"MEAN_MOTION_DDOT":0},{"OBJECT_NAME":"SHIYAN-1 (SY-1)","OBJECT_ID":"2004-012A","EPOCH":"2026-03-14T04:19:57.181152","MEAN_MOTION":15.31193392,"ECCENTRICITY":0.00054846,"INCLINATION":97.8764,"RA_OF_ASC_NODE":145.2426,"ARG_OF_PERICENTER":7.7357,"MEAN_ANOMALY":352.3967,"EPHEMERIS_TYPE":0,"CLASSIFICATION_TYPE":"U","NORAD_CAT_ID":28220,"ELEMENT_SET_NO":999,"REV_AT_EPOCH":19654,"BSTAR":0.00055671542,"MEAN_MOTION_DOT":0.00016716,"MEAN_MOTION_DDOT":0},{"OBJECT_NAME":"AURA","OBJECT_ID":"2004-026A","EPOCH":"2026-03-14T13:25:02.468640","MEAN_MOTION":14.61162397,"ECCENTRICITY":0.00010856,"INCLINATION":98.3317,"RA_OF_ASC_NODE":29.2936,"ARG_OF_PERICENTER":88.5472,"MEAN_ANOMALY":271.5853,"EPHEMERIS_TYPE":0,"CLASSIFICATION_TYPE":"U","NORAD_CAT_ID":28376,"ELEMENT_SET_NO":999,"REV_AT_EPOCH":15239,"BSTAR":0.00025600366,"MEAN_MOTION_DOT":1.212e-5,"MEAN_MOTION_DDOT":0},{"OBJECT_NAME":"IRS-P5 (CARTOSAT-1)","OBJECT_ID":"2005-017A","EPOCH":"2026-03-14T13:57:17.235072","MEAN_MOTION":14.90785481,"ECCENTRICITY":0.00021535,"INCLINATION":97.5411,"RA_OF_ASC_NODE":100.9106,"ARG_OF_PERICENTER":63.1911,"MEAN_ANOMALY":296.9527,"EPHEMERIS_TYPE":0,"CLASSIFICATION_TYPE":"U","NORAD_CAT_ID":28649,"ELEMENT_SET_NO":999,"REV_AT_EPOCH":12972,"BSTAR":0.00018730232,"MEAN_MOTION_DOT":1.789e-5,"MEAN_MOTION_DDOT":0},{"OBJECT_NAME":"SINAH 1","OBJECT_ID":"2005-043D","EPOCH":"2026-03-14T14:34:08.447808","MEAN_MOTION":14.64079925,"ECCENTRICITY":0.00139338,"INCLINATION":98.2692,"RA_OF_ASC_NODE":207.4568,"ARG_OF_PERICENTER":208.1875,"MEAN_ANOMALY":151.8574,"EPHEMERIS_TYPE":0,"CLASSIFICATION_TYPE":"U","NORAD_CAT_ID":28893,"ELEMENT_SET_NO":999,"REV_AT_EPOCH":8668,"BSTAR":0.00011705848,"MEAN_MOTION_DOT":5.66e-6,"MEAN_MOTION_DDOT":0},{"OBJECT_NAME":"RESURS-DK 1","OBJECT_ID":"2006-021A","EPOCH":"2026-03-14T13:27:35.209152","MEAN_MOTION":15.12784346,"ECCENTRICITY":0.00013607,"INCLINATION":69.9325,"RA_OF_ASC_NODE":224.4218,"ARG_OF_PERICENTER":156.3357,"MEAN_ANOMALY":203.7872,"EPHEMERIS_TYPE":0,"CLASSIFICATION_TYPE":"U","NORAD_CAT_ID":29228,"ELEMENT_SET_NO":999,"REV_AT_EPOCH":8826,"BSTAR":0.00025097479,"MEAN_MOTION_DOT":4.309e-5,"MEAN_MOTION_DDOT":0},{"OBJECT_NAME":"ARIRANG-2 (KOMPSAT-2)","OBJECT_ID":"2006-031A","EPOCH":"2026-03-14T14:38:51.635904","MEAN_MOTION":14.6459329,"ECCENTRICITY":0.00148976,"INCLINATION":97.8308,"RA_OF_ASC_NODE":262.6261,"ARG_OF_PERICENTER":19.0046,"MEAN_ANOMALY":73.3777,"EPHEMERIS_TYPE":0,"CLASSIFICATION_TYPE":"U","NORAD_CAT_ID":29268,"ELEMENT_SET_NO":999,"REV_AT_EPOCH":4763,"BSTAR":7.2049959e-5,"MEAN_MOTION_DOT":3.38e-6,"MEAN_MOTION_DDOT":0},{"OBJECT_NAME":"LAPAN-TUBSAT","OBJECT_ID":"2007-001A","EPOCH":"2026-03-14T13:46:26.648256","MEAN_MOTION":14.85838711,"ECCENTRICITY":0.00130981,"INCLINATION":98.1339,"RA_OF_ASC_NODE":70.6808,"ARG_OF_PERICENTER":128.8798,"MEAN_ANOMALY":231.3587,"EPHEMERIS_TYPE":0,"CLASSIFICATION_TYPE":"U","NORAD_CAT_ID":29709,"ELEMENT_SET_NO":999,"REV_AT_EPOCH":3710,"BSTAR":5.1165453e-5,"MEAN_MOTION_DOT":3.88e-6,"MEAN_MOTION_DDOT":0},{"OBJECT_NAME":"HAIYANG-1B","OBJECT_ID":"2007-010A","EPOCH":"2026-03-14T13:00:39.469536","MEAN_MOTION":14.31001322,"ECCENTRICITY":0.00145063,"INCLINATION":98.3432,"RA_OF_ASC_NODE":59.0907,"ARG_OF_PERICENTER":119.2638,"MEAN_ANOMALY":240.9998,"EPHEMERIS_TYPE":0,"CLASSIFICATION_TYPE":"U","NORAD_CAT_ID":31113,"ELEMENT_SET_NO":999,"REV_AT_EPOCH":98709,"BSTAR":7.1289149e-5,"MEAN_MOTION_DOT":1.46e-6,"MEAN_MOTION_DDOT":0}]
