SCD 1                   
1 22490U 93009B   26073.33592028  .00000499  00000+0  85363-4 0  9998
2 22490  24.9695  73.2039 0041796 213.7890 169.6949 14.46071065747371
TECHSAT 1B (GO-32)      
1 25397U 98043D   26073.58691896  .00000114  00000+0  69244-4 0  9994
2 25397  99.0030  63.9796 0002177 111.7823 248.3587 14.24407722437867
SCD 2                   
1 25504U 98060A   26073.32422390  .00000449  00000+0  74537-4 0  9998
2 25504  24.9957 297.1641 0016716 200.0635 320.7613 14.45485600446587
DLR-TUBSAT              
1 25757U 99029B   26073.56835488  .00000173  00000+0  54284-4 0  9997
2 25757  98.6668  65.9758 0013036 278.7400  81.2318 14.52399927419516
TERRA                   
1 25994U 99068A   26073.66505179  .00000525  00000+0  11608-3 0  9998
2 25994  97.9583 126.9095 0002996 140.3198  19.5937 14.61020819395807
MAROC-TUBSAT            
1 27004U 01056D   26073.44394877 -.00000009  00000+0  42684-4 0  9996
2 27004  99.8016 248.5306 0020139  27.6952  26.4002 13.70258236213212
AQUA                    
1 27424U 02022A   26073.55881654  .00001257  00000+0  26065-3 0  9991
2 27424  98.4181  41.0126 0000610  99.4370  40.4397 14.61990486269445
IRS-P6 (RESOURCESAT-1)  
1 28051U 03046A   26073.63375882  .00000247  00000+0  96822-4 0  9992
2 28051  98.2042 114.7273 0062883 266.0078 254.9991 14.36120631166957
SHIYAN-1 (SY-1)         
1 28220U 04012A   26073.18052293  .00016716  00000+0  55672-3 0  9997
2 28220  97.8764 145.2426 0005484   7.7357 352.3967 15.31193392196548
AURA                    
1 28376U 04026A   26073.55905635  .00001212  00000+0  25600-3 0  9995
2 28376  98.3317  29.2936 0001085  88.5472 271.5853 14.61162397152399
IRS-P5 (CARTOSAT-1)     
1 28649U 05017A   26073.58144948  .00001789  00000+0  18730-3 0  9999
2 28649  97.5411 100.9106 0002153  63.1911 296.9527 14.90785481129725
SINAH 1                 
1 28893U 05043D   26073.60704222  .00000566  00000+0  11706-3 0  9997
2 28893  98.2692 207.4568 0013933 208.1875 151.8574 14.64079925 86686
RESURS-DK 1             
1 29228U 06021A   26073.56082418  .00004309  00000+0  25097-3 0  9995
2 29228  69.9325 224.4218 0001360 156.3357 203.7872 15.12784346 88266
ARIRANG-2 (KOMPSAT-2)   
1 29268U 06031A   26073.61031986  .00000338  00000+0  72050-4 0  9990
2 29268  97.8308 262.6261 0014897  19.0046  73.3777 14.64593290 47635
LAPAN-TUBSAT            
1 29709U 07001A   26073.57391954  .00000388  00000+0  51165-4 0  9996
2 29709  98.1339  70.6808 0013098 128.8798 231.3587 14.85838711 37101
HAIYANG-1B              
1 31113U 07010A   26073.54212349  .00000146  00000+0  71289-4 0  9996
2 31113  98.3432  59.0907 0014506 119.2638 240.9998 14.31001322987097
